[{"OBJECT_NAME":"ZIYUAN 1-02C (ZY 1-02C)","OBJECT_ID":"2011-079A","EPOCH":"2026-03-10T00:21:45.280224","MEAN_MOTION":14.38123973,"ECCENTRICITY":0.00053834,"INCLINATION":98.4167,"RA_OF_ASC_NODE":138.3624,"ARG_OF_PERICENTER":238.9134,"MEAN_ANOMALY":241.9717,"EPHEMERIS_TYPE":0,"CLASSIFICATION_TYPE":"U","NORAD_CAT_ID":38038,"ELEMENT_SET_NO":999,"REV_AT_EPOCH":74495,"BSTAR":0.00018700518,"MEAN_MOTION_DOT":5.24e-6,"MEAN_MOTION_DDOT":0},{"OBJECT_NAME":"UNKNOWN","OBJECT_ID":"","EPOCH":"2026-02-28T11:01:44.273280","MEAN_MOTION":12.92575059,"ECCENTRICITY":0.06927877,"INCLINATION":72.9891,"RA_OF_ASC_NODE":323.226,"ARG_OF_PERICENTER":252.3339,"MEAN_ANOMALY":100.0972,"EPHEMERIS_TYPE":0,"CLASSIFICATION_TYPE":"U","NORAD_CAT_ID":270181,"ELEMENT_SET_NO":999,"REV_AT_EPOCH":29386,"BSTAR":-0.00015416991,"MEAN_MOTION_DOT":-1.52e-6,"MEAN_MOTION_DDOT":0}]
